{
  "type": "FeatureCollection",
  "features": [
    {
      "type": "Feature",
      "properties": {
        "norad_id": 37781,
        "name": "HAIYANG-2A",
        "group": "resource",
        "lat": -23.71525554114215,
        "lon": -2.432978745836774,
        "alt_km": 973.5844701711585,
        "timestamp": "2025-12-18T13:51:49.317494+00:00",
        "meta_object_name": "HAIYANG-2A",
        "meta_object_id": "2011-043A",
        "meta_epoch": "2025-12-18T07:00:50.347296",
        "meta_mean_motion": 13.78834656,
        "meta_eccentricity": 0.00016313,
        "meta_inclination": 99.3374,
        "meta_ra_of_asc_node": 353.1414,
        "meta_arg_of_pericenter": 76.3363,
        "meta_mean_anomaly": 283.797,
        "meta_ephemeris_type": 0,
        "meta_classification_type": "U",
        "meta_norad_cat_id": 37781,
        "meta_element_set_no": 999,
        "meta_rev_at_epoch": 72175,
        "meta_bstar": -0.00024025263,
        "meta_mean_motion_dot": -2.89e-06,
        "meta_mean_motion_ddot": 0,
        "tle_line1": "1 37781U 11043A   25352.29224939 -.00000289  00000+0 -24025-3 0  9998",
        "tle_line2": "2 37781  99.3374 353.1414 0001631  76.3363 283.7970 13.78834656721752"
      },
      "geometry": {
        "type": "Point",
        "coordinates": [
          -2.432978745836774,
          -23.71525554114215
        ]
      }
    },
    {
      "type": "Feature",
      "properties": {
        "norad_id": 37791,
        "name": "RASAT",
        "group": "resource",
        "lat": 17.706328049959858,
        "lon": -95.6565500014264,
        "alt_km": 674.5121515818964,
        "timestamp": "2025-12-18T13:51:49.317506+00:00",
        "meta_object_name": "RASAT",
        "meta_object_id": "2011-044D",
        "meta_epoch": "2025-12-18T06:55:56.502624",
        "meta_mean_motion": 14.67917167,
        "meta_eccentricity": 0.00216699,
        "meta_inclination": 98.0649,
        "meta_ra_of_asc_node": 81.4644,
        "meta_arg_of_pericenter": 48.2233,
        "meta_mean_anomaly": 28.2714,
        "meta_ephemeris_type": 0,
        "meta_classification_type": "U",
        "meta_norad_cat_id": 37791,
        "meta_element_set_no": 999,
        "meta_rev_at_epoch": 76664,
        "meta_bstar": 8.8501083e-05,
        "meta_mean_motion_dot": 4.59e-06,
        "meta_mean_motion_ddot": 0,
        "tle_line1": "1 37791U 11044D   25352.28884841  .00000459  00000+0  88501-4 0  9990",
        "tle_line2": "2 37791  98.0649  81.4644 0021669  48.2233  28.2714 14.67917167766640"
      },
      "geometry": {
        "type": "Point",
        "coordinates": [
          -95.6565500014264,
          17.706328049959858
        ]
      }
    },
    {
      "type": "Feature",
      "properties": {
        "norad_id": 37841,
        "name": "SRMSAT",
        "group": "resource",
        "lat": -19.382315182190368,
        "lon": -2.9971757303592783,
        "alt_km": 854.6290781826092,
        "timestamp": "2025-12-18T13:51:49.317517+00:00",
        "meta_object_name": "SRMSAT",
        "meta_object_id": "2011-058D",
        "meta_epoch": "2025-12-17T14:36:14.562432",
        "meta_mean_motion": 14.11513105,
        "meta_eccentricity": 0.0011885,
        "meta_inclination": 19.972,
        "meta_ra_of_asc_node": 78.4836,
        "meta_arg_of_pericenter": 7.0463,
        "meta_mean_anomaly": 21.298,
        "meta_ephemeris_type": 0,
        "meta_classification_type": "U",
        "meta_norad_cat_id": 37841,
        "meta_element_set_no": 999,
        "meta_rev_at_epoch": 73213,
        "meta_bstar": 7.3050656e-05,
        "meta_mean_motion_dot": 3.99e-06,
        "meta_mean_motion_ddot": 0,
        "tle_line1": "1 37841U 11058D   25351.60850188  .00000399  00000+0  73051-4 0  9990",
        "tle_line2": "2 37841  19.9720  78.4836 0011885   7.0463  21.2980 14.11513105732132"
      },
      "geometry": {
        "type": "Point",
        "coordinates": [
          -2.9971757303592783,
          -19.382315182190368
        ]
      }
    },
    {
      "type": "Feature",
      "properties": {
        "norad_id": 38012,
        "name": "PLEIADES 1A",
        "group": "resource",
        "lat": 58.22690903458321,
        "lon": -101.31108294298089,
        "alt_km": 691.6446615707728,
        "timestamp": "2025-12-18T13:51:49.317528+00:00",
        "meta_object_name": "PLEIADES 1A",
        "meta_object_id": "2011-076F",
        "meta_epoch": "2025-12-18T07:03:05.778432",
        "meta_mean_motion": 14.58566628,
        "meta_eccentricity": 0.00011556,
        "meta_inclination": 98.1823,
        "meta_ra_of_asc_node": 64.9769,
        "meta_arg_of_pericenter": 72.8468,
        "meta_mean_anomaly": 358.3939,
        "meta_ephemeris_type": 0,
        "meta_classification_type": "U",
        "meta_norad_cat_id": 38012,
        "meta_element_set_no": 999,
        "meta_rev_at_epoch": 74562,
        "meta_bstar": 8.2103614e-05,
        "meta_mean_motion_dot": 3.36e-06,
        "meta_mean_motion_ddot": 0,
        "tle_line1": "1 38012U 11076F   25352.29381688  .00000336  00000+0  82104-4 0  9991",
        "tle_line2": "2 38012  98.1823  64.9769 0001155  72.8468 358.3939 14.58566628745620"
      },
      "geometry": {
        "type": "Point",
        "coordinates": [
          -101.31108294298089,
          58.22690903458321
        ]
      }
    },
    {
      "type": "Feature",
      "properties": {
        "norad_id": 38038,
        "name": "ZIYUAN 1-02C (ZY 1-02C)",
        "group": "resource",
        "lat": -42.16016705219094,
        "lon": 66.20407067241794,
        "alt_km": 776.7401650613265,
        "timestamp": "2025-12-18T13:51:49.317539+00:00",
        "meta_object_name": "ZIYUAN 1-02C (ZY 1-02C)",
        "meta_object_id": "2011-079A",
        "meta_epoch": "2025-12-18T07:43:55.284096",
        "meta_mean_motion": 14.38018434,
        "meta_eccentricity": 0.00073734,
        "meta_inclination": 98.4333,
        "meta_ra_of_asc_node": 58.2332,
        "meta_arg_of_pericenter": 123.7897,
        "meta_mean_anomaly": 311.7383,
        "meta_ephemeris_type": 0,
        "meta_classification_type": "U",
        "meta_norad_cat_id": 38038,
        "meta_element_set_no": 999,
        "meta_rev_at_epoch": 73321,
        "meta_bstar": 0.00015966053,
        "meta_mean_motion_dot": 4.4e-06,
        "meta_mean_motion_ddot": 0,
        "tle_line1": "1 38038U 11079A   25352.32216764  .00000440  00000+0  15966-3 0  9995",
        "tle_line2": "2 38038  98.4333  58.2332 0007373 123.7897 311.7383 14.38018434733212"
      },
      "geometry": {
        "type": "Point",
        "coordinates": [
          66.20407067241794,
          -42.16016705219094
        ]
      }
    },
    {
      "type": "Feature",
      "properties": {
        "norad_id": 38338,
        "name": "ARIRANG-3 (KOMPSAT-3)",
        "group": "resource",
        "lat": 79.9836355148715,
        "lon": -108.87228094886598,
        "alt_km": 682.285687658682,
        "timestamp": "2025-12-18T13:51:49.317550+00:00",
        "meta_object_name": "ARIRANG-3 (KOMPSAT-3)",
        "meta_object_id": "2012-025B",
        "meta_epoch": "2025-12-18T06:54:26.801280",
        "meta_mean_motion": 14.61719985,
        "meta_eccentricity": 0.00050107,
        "meta_inclination": 98.333,
        "meta_ra_of_asc_node": 306.9191,
        "meta_arg_of_pericenter": 319.6903,
        "meta_mean_anomaly": 40.3925,
        "meta_ephemeris_type": 0,
        "meta_classification_type": "U",
        "meta_norad_cat_id": 38338,
        "meta_element_set_no": 999,
        "meta_rev_at_epoch": 72491,
        "meta_bstar": 9.8409965e-05,
        "meta_mean_motion_dot": 4.42e-06,
        "meta_mean_motion_ddot": 0,
        "tle_line1": "1 38338U 12025B   25352.28781020  .00000442  00000+0  98410-4 0  9995",
        "tle_line2": "2 38338  98.3330 306.9191 0005010 319.6903  40.3925 14.61719985724916"
      },
      "geometry": {
        "type": "Point",
        "coordinates": [
          -108.87228094886598,
          79.9836355148715
        ]
      }
    },
    {
      "type": "Feature",
      "properties": {
        "norad_id": 38709,
        "name": "EXACTVIEW-1 (ADS-1B)",
        "group": "resource",
        "lat": 29.577607356795955,
        "lon": 95.95049760331742,
        "alt_km": 802.7764995219104,
        "timestamp": "2025-12-18T13:51:49.317560+00:00",
        "meta_object_name": "EXACTVIEW-1 (ADS-1B)",
        "meta_object_id": "2012-039C",
        "meta_epoch": "2025-12-18T06:58:57.463968",
        "meta_mean_motion": 14.24910205,
        "meta_eccentricity": 0.00103924,
        "meta_inclination": 98.9637,
        "meta_ra_of_asc_node": 100.7974,
        "meta_arg_of_pericenter": 337.8294,
        "meta_mean_anomaly": 22.2434,
        "meta_ephemeris_type": 0,
        "meta_classification_type": "U",
        "meta_norad_cat_id": 38709,
        "meta_element_set_no": 999,
        "meta_rev_at_epoch": 69694,
        "meta_bstar": 6.6165592e-05,
        "meta_mean_motion_dot": 1.08e-06,
        "meta_mean_motion_ddot": 0,
        "tle_line1": "1 38709U 12039C   25352.29094287  .00000108  00000+0  66166-4 0  9997",
        "tle_line2": "2 38709  98.9637 100.7974 0010392 337.8294  22.2434 14.24910205696949"
      },
      "geometry": {
        "type": "Point",
        "coordinates": [
          95.95049760331742,
          29.577607356795955
        ]
      }
    }
  ]
}